<?xml version="1.0" encoding="UTF-8"?>
<gpx version="1.1" creator="synthetic-fixture" xmlns="http://www.topografix.com/GPX/1/1">
  <trk>
    <name>Morning route &amp; return</name>
    <trkseg>
      <trkpt lat="51.500700" lon="-0.124600"><ele>14.2</ele><time>2026-09-26T06:30:00Z</time></trkpt>
      <trkpt lat="51.500900" lon="-0.124100"><ele>15.1</ele><time>2026-09-26T06:31:00Z</time></trkpt>
      <trkpt lat="51.501200" lon="-0.123500"><ele>16.0</ele><time>2026-09-26T06:32:00Z</time></trkpt>
      <trkpt lat="51.501500" lon="-0.122900"><ele>15.4</ele><time>2026-09-26T06:33:00Z</time></trkpt>
    </trkseg>
  </trk>
</gpx>
